[{"OBJECT_NAME":"STARLINK-5611","OBJECT_ID":"2023-028W","EPOCH":"2026-03-09T20:34:28.656768","MEAN_MOTION":14.98332841,"ECCENTRICITY":0.00031081,"INCLINATION":69.9998,"RA_OF_ASC_NODE":224.2157,"ARG_OF_PERICENTER":273.175,"MEAN_ANOMALY":86.9054,"EPHEMERIS_TYPE":0,"CLASSIFICATION_TYPE":"U","NORAD_CAT_ID":55761,"ELEMENT_SET_NO":999,"REV_AT_EPOCH":16655,"BSTAR":4.0943828e-5,"MEAN_MOTION_DOT":3.96e-6,"MEAN_MOTION_DDOT":0},{"OBJECT_NAME":"UM5-EOSAT","OBJECT_ID":"2024-149CR","EPOCH":"2026-03-09T17:21:09.122400","MEAN_MOTION":15.00894746,"ECCENTRICITY":0.00087192,"INCLINATION":97.6855,"RA_OF_ASC_NODE":148.6787,"ARG_OF_PERICENTER":107.8964,"MEAN_ANOMALY":252.3212,"EPHEMERIS_TYPE":0,"CLASSIFICATION_TYPE":"U","NORAD_CAT_ID":60555,"ELEMENT_SET_NO":999,"REV_AT_EPOCH":8529,"BSTAR":0.00036077282,"MEAN_MOTION_DOT":4.537e-5,"MEAN_MOTION_DDOT":0}]
